[{"OBJECT_NAME":"HORYU-4","OBJECT_ID":"2016-012D","EPOCH":"2026-03-02T10:31:33.413088","MEAN_MOTION":15.6142817,"ECCENTRICITY":0.0001821,"INCLINATION":30.9915,"RA_OF_ASC_NODE":118.6736,"ARG_OF_PERICENTER":75.0836,"MEAN_ANOMALY":285.0018,"EPHEMERIS_TYPE":0,"CLASSIFICATION_TYPE":"U","NORAD_CAT_ID":41340,"ELEMENT_SET_NO":999,"REV_AT_EPOCH":55397,"BSTAR":0.0010268998,"MEAN_MOTION_DOT":0.00092182,"MEAN_MOTION_DDOT":0},{"OBJECT_NAME":"RAVAN","OBJECT_ID":"2016-067B","EPOCH":"2026-03-02T15:39:20.029824","MEAN_MOTION":15.45465635,"ECCENTRICITY":0.0007023,"INCLINATION":98.0063,"RA_OF_ASC_NODE":299.6426,"ARG_OF_PERICENTER":28.5404,"MEAN_ANOMALY":331.6226,"EPHEMERIS_TYPE":0,"CLASSIFICATION_TYPE":"U","NORAD_CAT_ID":41849,"ELEMENT_SET_NO":999,"REV_AT_EPOCH":51119,"BSTAR":0.0008973,"MEAN_MOTION_DOT":0.000431,"MEAN_MOTION_DDOT":0},{"OBJECT_NAME":"CELTEE 1","OBJECT_ID":"2016-067C","EPOCH":"2026-03-02T13:34:47.224704","MEAN_MOTION":15.1847465,"ECCENTRICITY":5.38e-5,"INCLINATION":98.0827,"RA_OF_ASC_NODE":280.8515,"ARG_OF_PERICENTER":127.4358,"MEAN_ANOMALY":232.6924,"EPHEMERIS_TYPE":0,"CLASSIFICATION_TYPE":"U","NORAD_CAT_ID":41850,"ELEMENT_SET_NO":999,"REV_AT_EPOCH":50969,"BSTAR":0.0003694,"MEAN_MOTION_DOT":7.54e-5,"MEAN_MOTION_DDOT":0},{"OBJECT_NAME":"OPTICUBE 04","OBJECT_ID":"2016-067D","EPOCH":"2026-03-02T13:09:25.103808","MEAN_MOTION":15.09134633,"ECCENTRICITY":0.0017043,"INCLINATION":98.081,"RA_OF_ASC_NODE":268.2221,"ARG_OF_PERICENTER":116.2264,"MEAN_ANOMALY":244.0718,"EPHEMERIS_TYPE":0,"CLASSIFICATION_TYPE":"U","NORAD_CAT_ID":41851,"ELEMENT_SET_NO":999,"REV_AT_EPOCH":50908,"BSTAR":0.00018639,"MEAN_MOTION_DOT":2.895e-5,"MEAN_MOTION_DDOT":0},{"OBJECT_NAME":"AEROCUBE 8D","OBJECT_ID":"2016-067E","EPOCH":"2026-03-02T13:34:23.120832","MEAN_MOTION":15.22712828,"ECCENTRICITY":0.0004351,"INCLINATION":98.0843,"RA_OF_ASC_NODE":283.654,"ARG_OF_PERICENTER":129.8632,"MEAN_ANOMALY":230.2985,"EPHEMERIS_TYPE":0,"CLASSIFICATION_TYPE":"U","NORAD_CAT_ID":41852,"ELEMENT_SET_NO":999,"REV_AT_EPOCH":50983,"BSTAR":0.00045733,"MEAN_MOTION_DOT":0.00010593,"MEAN_MOTION_DDOT":0},{"OBJECT_NAME":"AEROCUBE 8C","OBJECT_ID":"2016-067F","EPOCH":"2026-03-02T12:59:25.678752","MEAN_MOTION":15.22935125,"ECCENTRICITY":0.00066927,"INCLINATION":98.071,"RA_OF_ASC_NODE":280.997,"ARG_OF_PERICENTER":73.3325,"MEAN_ANOMALY":286.8644,"EPHEMERIS_TYPE":0,"CLASSIFICATION_TYPE":"U","NORAD_CAT_ID":41853,"ELEMENT_SET_NO":999,"REV_AT_EPOCH":50982,"BSTAR":0.00047310858,"MEAN_MOTION_DOT":0.00011038,"MEAN_MOTION_DDOT":0},{"OBJECT_NAME":"CORVUS BC2","OBJECT_ID":"2017-042X","EPOCH":"2026-03-02T09:59:55.275936","MEAN_MOTION":15.05518435,"ECCENTRICITY":0.00142611,"INCLINATION":97.3917,"RA_OF_ASC_NODE":227.0412,"ARG_OF_PERICENTER":116.3092,"MEAN_ANOMALY":243.9602,"EPHEMERIS_TYPE":0,"CLASSIFICATION_TYPE":"U","NORAD_CAT_ID":42846,"ELEMENT_SET_NO":999,"REV_AT_EPOCH":47099,"BSTAR":0.00040187951,"MEAN_MOTION_DOT":5.737e-5,"MEAN_MOTION_DDOT":0},{"OBJECT_NAME":"CORVUS BC1","OBJECT_ID":"2017-042Y","EPOCH":"2026-03-02T10:10:48.828864","MEAN_MOTION":15.05737969,"ECCENTRICITY":0.00133682,"INCLINATION":97.3952,"RA_OF_ASC_NODE":227.7892,"ARG_OF_PERICENTER":94.2334,"MEAN_ANOMALY":266.0422,"EPHEMERIS_TYPE":0,"CLASSIFICATION_TYPE":"U","NORAD_CAT_ID":42847,"ELEMENT_SET_NO":999,"REV_AT_EPOCH":47102,"BSTAR":0.00029580803,"MEAN_MOTION_DOT":4.23e-5,"MEAN_MOTION_DDOT":0},{"OBJECT_NAME":"MAKERSAT 0","OBJECT_ID":"2017-073D","EPOCH":"2026-03-02T15:04:00.543648","MEAN_MOTION":15.27392648,"ECCENTRICITY":0.0116359,"INCLINATION":97.4802,"RA_OF_ASC_NODE":303.5842,"ARG_OF_PERICENTER":291.2517,"MEAN_ANOMALY":67.6327,"EPHEMERIS_TYPE":0,"CLASSIFICATION_TYPE":"U","NORAD_CAT_ID":43016,"ELEMENT_SET_NO":999,"REV_AT_EPOCH":45017,"BSTAR":0.00081739,"MEAN_MOTION_DOT":0.00026779,"MEAN_MOTION_DDOT":0},{"OBJECT_NAME":"SIRION PATHFINDER-2","OBJECT_ID":"2018-099B","EPOCH":"2026-03-02T17:01:48.066240","MEAN_MOTION":15.13434162,"ECCENTRICITY":0.000766,"INCLINATION":97.4407,"RA_OF_ASC_NODE":113.3007,"ARG_OF_PERICENTER":315.4053,"MEAN_ANOMALY":44.6561,"EPHEMERIS_TYPE":0,"CLASSIFICATION_TYPE":"U","NORAD_CAT_ID":43759,"ELEMENT_SET_NO":999,"REV_AT_EPOCH":39651,"BSTAR":0.00035561,"MEAN_MOTION_DOT":6.295e-5,"MEAN_MOTION_DDOT":0},{"OBJECT_NAME":"CORVUS BC4","OBJECT_ID":"2018-099K","EPOCH":"2026-03-02T17:00:06.758784","MEAN_MOTION":15.11523221,"ECCENTRICITY":0.0008787,"INCLINATION":97.4223,"RA_OF_ASC_NODE":107.7955,"ARG_OF_PERICENTER":20.7917,"MEAN_ANOMALY":339.3669,"EPHEMERIS_TYPE":0,"CLASSIFICATION_TYPE":"U","NORAD_CAT_ID":43767,"ELEMENT_SET_NO":999,"REV_AT_EPOCH":39631,"BSTAR":0.00033279,"MEAN_MOTION_DOT":5.581e-5,"MEAN_MOTION_DDOT":0},{"OBJECT_NAME":"SPACEBEE-7","OBJECT_ID":"2018-099BL","EPOCH":"2026-03-02T18:08:26.549376","MEAN_MOTION":16.03076494,"ECCENTRICITY":0.0007821,"INCLINATION":97.4408,"RA_OF_ASC_NODE":148.0919,"ARG_OF_PERICENTER":270.3555,"MEAN_ANOMALY":89.6828,"EPHEMERIS_TYPE":0,"CLASSIFICATION_TYPE":"U","NORAD_CAT_ID":43816,"ELEMENT_SET_NO":999,"REV_AT_EPOCH":39810,"BSTAR":0.0019892,"MEAN_MOTION_DOT":0.01193306,"MEAN_MOTION_DDOT":0.00078424},{"OBJECT_NAME":"M2 PATHFINDER","OBJECT_ID":"2020-037E","EPOCH":"2026-03-02T11:52:15.577536","MEAN_MOTION":15.04118242,"ECCENTRICITY":0.0012342,"INCLINATION":97.8148,"RA_OF_ASC_NODE":251.5387,"ARG_OF_PERICENTER":148.4963,"MEAN_ANOMALY":211.7004,"EPHEMERIS_TYPE":0,"CLASSIFICATION_TYPE":"U","NORAD_CAT_ID":45727,"ELEMENT_SET_NO":999,"REV_AT_EPOCH":30945,"BSTAR":0.00023807998,"MEAN_MOTION_DOT":3.241e-5,"MEAN_MOTION_DDOT":0},{"OBJECT_NAME":"NETSAT-4","OBJECT_ID":"2020-068U","EPOCH":"2026-03-02T12:13:24.016800","MEAN_MOTION":15.4001861,"ECCENTRICITY":0.00056289,"INCLINATION":97.8634,"RA_OF_ASC_NODE":61.4742,"ARG_OF_PERICENTER":6.7702,"MEAN_ANOMALY":353.3617,"EPHEMERIS_TYPE":0,"CLASSIFICATION_TYPE":"U","NORAD_CAT_ID":46504,"ELEMENT_SET_NO":999,"REV_AT_EPOCH":29933,"BSTAR":0.00055025841,"MEAN_MOTION_DOT":0.00021923,"MEAN_MOTION_DDOT":0},{"OBJECT_NAME":"NETSAT-3","OBJECT_ID":"2020-068V","EPOCH":"2026-03-02T13:24:15.536160","MEAN_MOTION":15.3867297,"ECCENTRICITY":0.0006188,"INCLINATION":97.8668,"RA_OF_ASC_NODE":59.8974,"ARG_OF_PERICENTER":22.9256,"MEAN_ANOMALY":337.2263,"EPHEMERIS_TYPE":0,"CLASSIFICATION_TYPE":"U","NORAD_CAT_ID":46505,"ELEMENT_SET_NO":999,"REV_AT_EPOCH":29926,"BSTAR":0.0005601,"MEAN_MOTION_DOT":0.00021355,"MEAN_MOTION_DDOT":0},{"OBJECT_NAME":"NETSAT-1","OBJECT_ID":"2020-068W","EPOCH":"2026-03-02T11:59:39.532704","MEAN_MOTION":15.31742565,"ECCENTRICITY":0.00068356,"INCLINATION":97.8736,"RA_OF_ASC_NODE":55.3453,"ARG_OF_PERICENTER":40.1536,"MEAN_ANOMALY":320.0208,"EPHEMERIS_TYPE":0,"CLASSIFICATION_TYPE":"U","NORAD_CAT_ID":46506,"ELEMENT_SET_NO":999,"REV_AT_EPOCH":29895,"BSTAR":0.00060156702,"MEAN_MOTION_DOT":0.0001839,"MEAN_MOTION_DDOT":0},{"OBJECT_NAME":"NETSAT-2","OBJECT_ID":"2020-068X","EPOCH":"2026-03-02T14:21:01.481184","MEAN_MOTION":15.41146048,"ECCENTRICITY":0.0005596,"INCLINATION":97.8647,"RA_OF_ASC_NODE":61.1594,"ARG_OF_PERICENTER":41.0713,"MEAN_ANOMALY":319.0953,"EPHEMERIS_TYPE":0,"CLASSIFICATION_TYPE":"U","NORAD_CAT_ID":46507,"ELEMENT_SET_NO":999,"REV_AT_EPOCH":29929,"BSTAR":0.00067702,"MEAN_MOTION_DOT":0.0002804,"MEAN_MOTION_DDOT":0}]
