HORYU-4                 
1 41340U 16012D   26061.43858117  .00092182  00000+0  10269-2 0  9995
2 41340  30.9915 118.6736 0001821  75.0836 285.0018 15.61428170553972
RAVAN                   
1 41849U 16067B   26061.65231516  .00043100  00000+0  89730-3 0  9997
2 41849  98.0063 299.6426 0007023  28.5404 331.6226 15.45465635511191
CELTEE 1                
1 41850U 16067C   26061.56582436  .00007540  00000+0  36940-3 0  9992
2 41850  98.0827 280.8515 0000538 127.4358 232.6924 15.18474650509697
OPTICUBE 04             
1 41851U 16067D   26061.54820722  .00002895  00000+0  18639-3 0  9997
2 41851  98.0810 268.2221 0017043 116.2264 244.0718 15.09134633509080
AEROCUBE 8D             
1 41852U 16067E   26061.56554538  .00010593  00000+0  45733-3 0  9998
2 41852  98.0843 283.6540 0004351 129.8632 230.2985 15.22712828509838
AEROCUBE 8C             
1 41853U 16067F   26061.54126943  .00011038  00000+0  47311-3 0  9991
2 41853  98.0710 280.9970 0006692  73.3325 286.8644 15.22935125509826
CORVUS BC2              
1 42846U 17042X   26061.41661199  .00005737  00000+0  40188-3 0  9995
2 42846  97.3917 227.0412 0014261 116.3092 243.9602 15.05518435470998
CORVUS BC1              
1 42847U 17042Y   26061.42417626  .00004230  00000+0  29581-3 0  9992
2 42847  97.3952 227.7892 0013368  94.2334 266.0422 15.05737969471023
MAKERSAT 0              
1 43016U 17073D   26061.62778407  .00026779  00000+0  81739-3 0  9999
2 43016  97.4802 303.5842 0116359 291.2517  67.6327 15.27392648450178
SIRION PATHFINDER-2     
1 43759U 18099B   26061.70958410  .00006295  00000+0  35561-3 0  9998
2 43759  97.4407 113.3007 0007660 315.4053  44.6561 15.13434162396516
CORVUS BC4              
1 43767U 18099K   26061.70841156  .00005581  00000+0  33279-3 0  9996
2 43767  97.4223 107.7955 0008787  20.7917 339.3669 15.11523221396310
SPACEBEE-7              
1 43816U 18099BL  26061.75586284  .01193306  78424-3  19892-2 0  9991
2 43816  97.4408 148.0919 0007821 270.3555  89.6828 16.03076494398105
M2 PATHFINDER           
1 45727U 20037E   26061.49462474  .00003241  00000+0  23808-3 0  9995
2 45727  97.8148 251.5387 0012342 148.4963 211.7004 15.04118242309456
NETSAT-4                
1 46504U 20068U   26061.50930575  .00021923  00000+0  55026-3 0  9991
2 46504  97.8634  61.4742 0005628   6.7702 353.3617 15.40018610299335
NETSAT-3                
1 46505U 20068V   26061.55851315  .00021355  00000+0  56010-3 0  9994
2 46505  97.8668  59.8974 0006188  22.9256 337.2263 15.38672970299269
NETSAT-1                
1 46506U 20068W   26061.49976311  .00018390  00000+0  60157-3 0  9994
2 46506  97.8736  55.3453 0006835  40.1536 320.0208 15.31742565298956
NETSAT-2                
1 46507U 20068X   26061.59793381  .00028040  00000+0  67702-3 0  9996
2 46507  97.8647  61.1594 0005596  41.0713 319.0953 15.41146048299297
